COSMOS 2251 DEB         
1 35285U 93036AJP 17337.20786681  .00001077  00000-0  28106-3 0  9998
2 35285  74.0269 170.3890 0016679 272.3384  87.5866 14.50632328453915
